CCSDS_OMM_VERS = 2.0
CREATION_DATE  = 
ORIGINATOR     = 

OBJECT_NAME    = STARLINK-35848
OBJECT_ID      = 2025-254B
CENTER_NAME    = EARTH
REF_FRAME      = TEME
TIME_SYSTEM    = UTC
MEAN_ELEMENT_THEORY = SGP/SGP4

EPOCH          = 2025-12-01T20:00:01.999008
MEAN_MOTION    = 15.70320297
ECCENTRICITY   = .0000879
INCLINATION    = 53.1588
RA_OF_ASC_NODE = 329.1106
ARG_OF_PERICENTER = 99.9762
MEAN_ANOMALY   = 263.3725

EPHEMERIS_TYPE = 0
CLASSIFICATION_TYPE = U
NORAD_CAT_ID   = 66349
ELEMENT_SET_NO = 999
REV_AT_EPOCH   = 517
BSTAR          = -.17907E-1
MEAN_MOTION_DOT = -.1967061E-1
MEAN_MOTION_DDOT = 0

CCSDS_OMM_VERS = 2.0
CREATION_DATE  = 
ORIGINATOR     = 

OBJECT_NAME    = STARLINK-35829
OBJECT_ID      = 2025-254C
CENTER_NAME    = EARTH
REF_FRAME      = TEME
TIME_SYSTEM    = UTC
MEAN_ELEMENT_THEORY = SGP/SGP4

EPOCH          = 2025-12-01T20:00:01.999008
MEAN_MOTION    = 15.70317846
ECCENTRICITY   = .0000927
INCLINATION    = 53.1586
RA_OF_ASC_NODE = 329.1065
ARG_OF_PERICENTER = 94.6004
MEAN_ANOMALY   = 270.6659

EPHEMERIS_TYPE = 0
CLASSIFICATION_TYPE = U
NORAD_CAT_ID   = 66350
ELEMENT_SET_NO = 999
REV_AT_EPOCH   = 517
BSTAR          = -.17874E-1
MEAN_MOTION_DOT = -.1963758E-1
MEAN_MOTION_DDOT = 0

CCSDS_OMM_VERS = 2.0
CREATION_DATE  = 
ORIGINATOR     = 

OBJECT_NAME    = STARLINK-35828
OBJECT_ID      = 2025-254D
CENTER_NAME    = EARTH
REF_FRAME      = TEME
TIME_SYSTEM    = UTC
MEAN_ELEMENT_THEORY = SGP/SGP4

EPOCH          = 2025-12-01T20:00:01.999008
MEAN_MOTION    = 15.70310140
ECCENTRICITY   = .0000899
INCLINATION    = 53.1587
RA_OF_ASC_NODE = 329.1025
ARG_OF_PERICENTER = 102.6994
MEAN_ANOMALY   = 264.4857

EPHEMERIS_TYPE = 0
CLASSIFICATION_TYPE = U
NORAD_CAT_ID   = 66351
ELEMENT_SET_NO = 999
REV_AT_EPOCH   = 514
BSTAR          = -.17771E-1
MEAN_MOTION_DOT = -.1953195E-1
MEAN_MOTION_DDOT = 0

CCSDS_OMM_VERS = 2.0
CREATION_DATE  = 
ORIGINATOR     = 

OBJECT_NAME    = STARLINK-35850
OBJECT_ID      = 2025-254E
CENTER_NAME    = EARTH
REF_FRAME      = TEME
TIME_SYSTEM    = UTC
MEAN_ELEMENT_THEORY = SGP/SGP4

EPOCH          = 2025-12-01T20:00:01.999008
MEAN_MOTION    = 15.70316421
ECCENTRICITY   = .0000997
INCLINATION    = 53.1591
RA_OF_ASC_NODE = 329.0980
ARG_OF_PERICENTER = 94.3463
MEAN_ANOMALY   = 274.7536

EPHEMERIS_TYPE = 0
CLASSIFICATION_TYPE = U
NORAD_CAT_ID   = 66352
ELEMENT_SET_NO = 999
REV_AT_EPOCH   = 512
BSTAR          = -.17854E-1
MEAN_MOTION_DOT = -.1961744E-1
MEAN_MOTION_DDOT = 0

CCSDS_OMM_VERS = 2.0
CREATION_DATE  = 
ORIGINATOR     = 

OBJECT_NAME    = STARLINK-35869
OBJECT_ID      = 2025-254F
CENTER_NAME    = EARTH
REF_FRAME      = TEME
TIME_SYSTEM    = UTC
MEAN_ELEMENT_THEORY = SGP/SGP4

EPOCH          = 2025-12-01T20:00:01.999008
MEAN_MOTION    = 15.70293992
ECCENTRICITY   = .0001001
INCLINATION    = 53.1591
RA_OF_ASC_NODE = 329.0939
ARG_OF_PERICENTER = 87.5281
MEAN_ANOMALY   = 283.5032

EPHEMERIS_TYPE = 0
CLASSIFICATION_TYPE = U
NORAD_CAT_ID   = 66353
ELEMENT_SET_NO = 999
REV_AT_EPOCH   = 517
BSTAR          = -.17625E-1
MEAN_MOTION_DOT = -.1937852E-1
MEAN_MOTION_DDOT = 0

CCSDS_OMM_VERS = 2.0
CREATION_DATE  = 
ORIGINATOR     = 

OBJECT_NAME    = STARLINK-35895
OBJECT_ID      = 2025-254G
CENTER_NAME    = EARTH
REF_FRAME      = TEME
TIME_SYSTEM    = UTC
MEAN_ELEMENT_THEORY = SGP/SGP4

EPOCH          = 2025-12-01T20:00:01.999008
MEAN_MOTION    = 15.57394144
ECCENTRICITY   = .000134
INCLINATION    = 53.1595
RA_OF_ASC_NODE = 329.2677
ARG_OF_PERICENTER = 99.0604
MEAN_ANOMALY   = 186.0049

EPHEMERIS_TYPE = 0
CLASSIFICATION_TYPE = U
NORAD_CAT_ID   = 66354
ELEMENT_SET_NO = 999
REV_AT_EPOCH   = 517
BSTAR          = -.37283E-1
MEAN_MOTION_DOT = -.2428069E-1
MEAN_MOTION_DDOT = 0

CCSDS_OMM_VERS = 2.0
CREATION_DATE  = 
ORIGINATOR     = 

OBJECT_NAME    = STARLINK-35861
OBJECT_ID      = 2025-254H
CENTER_NAME    = EARTH
REF_FRAME      = TEME
TIME_SYSTEM    = UTC
MEAN_ELEMENT_THEORY = SGP/SGP4

EPOCH          = 2025-12-01T20:00:01.999008
MEAN_MOTION    = 15.70323973
ECCENTRICITY   = .000092
INCLINATION    = 53.1588
RA_OF_ASC_NODE = 329.0858
ARG_OF_PERICENTER = 94.7209
MEAN_ANOMALY   = 280.1283

EPHEMERIS_TYPE = 0
CLASSIFICATION_TYPE = U
NORAD_CAT_ID   = 66355
ELEMENT_SET_NO = 999
REV_AT_EPOCH   = 517
BSTAR          = -.17966E-1
MEAN_MOTION_DOT = -.1973102E-1
MEAN_MOTION_DDOT = 0

CCSDS_OMM_VERS = 2.0
CREATION_DATE  = 
ORIGINATOR     = 

OBJECT_NAME    = STARLINK-35851
OBJECT_ID      = 2025-254J
CENTER_NAME    = EARTH
REF_FRAME      = TEME
TIME_SYSTEM    = UTC
MEAN_ELEMENT_THEORY = SGP/SGP4

EPOCH          = 2025-12-01T20:00:01.999008
MEAN_MOTION    = 15.70318642
ECCENTRICITY   = .0000896
INCLINATION    = 53.1588
RA_OF_ASC_NODE = 329.0811
ARG_OF_PERICENTER = 96.6231
MEAN_ANOMALY   = 280.1441

EPHEMERIS_TYPE = 0
CLASSIFICATION_TYPE = U
NORAD_CAT_ID   = 66356
ELEMENT_SET_NO = 999
REV_AT_EPOCH   = 517
BSTAR          = -.17885E-1
MEAN_MOTION_DOT = -.196484E-1
MEAN_MOTION_DDOT = 0

CCSDS_OMM_VERS = 2.0
CREATION_DATE  = 
ORIGINATOR     = 

OBJECT_NAME    = STARLINK-35817
OBJECT_ID      = 2025-254K
CENTER_NAME    = EARTH
REF_FRAME      = TEME
TIME_SYSTEM    = UTC
MEAN_ELEMENT_THEORY = SGP/SGP4

EPOCH          = 2025-12-01T20:00:01.999008
MEAN_MOTION    = 15.70322216
ECCENTRICITY   = .0000963
INCLINATION    = 53.1590
RA_OF_ASC_NODE = 329.0770
ARG_OF_PERICENTER = 99.0495
MEAN_ANOMALY   = 279.6318

EPHEMERIS_TYPE = 0
CLASSIFICATION_TYPE = U
NORAD_CAT_ID   = 66357
ELEMENT_SET_NO = 999
REV_AT_EPOCH   = 517
BSTAR          = -.1792E-1
MEAN_MOTION_DOT = -.1968602E-1
MEAN_MOTION_DDOT = 0

CCSDS_OMM_VERS = 2.0
CREATION_DATE  = 
ORIGINATOR     = 

OBJECT_NAME    = STARLINK-35807
OBJECT_ID      = 2025-254L
CENTER_NAME    = EARTH
REF_FRAME      = TEME
TIME_SYSTEM    = UTC
MEAN_ELEMENT_THEORY = SGP/SGP4

EPOCH          = 2025-12-01T20:00:01.999008
MEAN_MOTION    = 15.70302413
ECCENTRICITY   = .0000805
INCLINATION    = 53.1590
RA_OF_ASC_NODE = 329.0728
ARG_OF_PERICENTER = 108.2587
MEAN_ANOMALY   = 272.3514

EPHEMERIS_TYPE = 0
CLASSIFICATION_TYPE = U
NORAD_CAT_ID   = 66358
ELEMENT_SET_NO = 999
REV_AT_EPOCH   = 517
BSTAR          = -.17708E-1
MEAN_MOTION_DOT = -.1946419E-1
MEAN_MOTION_DDOT = 0

CCSDS_OMM_VERS = 2.0
CREATION_DATE  = 
ORIGINATOR     = 

OBJECT_NAME    = STARLINK-35805
OBJECT_ID      = 2025-254M
CENTER_NAME    = EARTH
REF_FRAME      = TEME
TIME_SYSTEM    = UTC
MEAN_ELEMENT_THEORY = SGP/SGP4

EPOCH          = 2025-12-01T20:00:01.999008
MEAN_MOTION    = 15.70319973
ECCENTRICITY   = .0000991
INCLINATION    = 53.1587
RA_OF_ASC_NODE = 329.0693
ARG_OF_PERICENTER = 96.3868
MEAN_ANOMALY   = 286.1279

EPHEMERIS_TYPE = 0
CLASSIFICATION_TYPE = U
NORAD_CAT_ID   = 66359
ELEMENT_SET_NO = 999
REV_AT_EPOCH   = 514
BSTAR          = -.17885E-1
MEAN_MOTION_DOT = -.1965003E-1
MEAN_MOTION_DDOT = 0

CCSDS_OMM_VERS = 2.0
CREATION_DATE  = 
ORIGINATOR     = 

OBJECT_NAME    = STARLINK-35823
OBJECT_ID      = 2025-254N
CENTER_NAME    = EARTH
REF_FRAME      = TEME
TIME_SYSTEM    = UTC
MEAN_ELEMENT_THEORY = SGP/SGP4

EPOCH          = 2025-12-01T20:00:01.999008
MEAN_MOTION    = 15.70360735
ECCENTRICITY   = .0001079
INCLINATION    = 53.1585
RA_OF_ASC_NODE = 329.0606
ARG_OF_PERICENTER = 90.2050
MEAN_ANOMALY   = 296.1370

EPHEMERIS_TYPE = 0
CLASSIFICATION_TYPE = U
NORAD_CAT_ID   = 66360
ELEMENT_SET_NO = 999
REV_AT_EPOCH   = 517
BSTAR          = -.1853E-1
MEAN_MOTION_DOT = -.2030497E-1
MEAN_MOTION_DDOT = 0

