STARLINK-35848          
1 66349U 25254B   25335.83335647 -.01967061  00000+0 -17907-1 0  9999
2 66349  53.1588 329.1106 0000879  99.9762 263.3725 15.70320297  5175
STARLINK-35829          
1 66350U 25254C   25335.83335647 -.01963758  00000+0 -17874-1 0  9993
2 66350  53.1586 329.1065 0000927  94.6004 270.6659 15.70317846  5177
STARLINK-35828          
1 66351U 25254D   25335.83335647 -.01953195  00000+0 -17771-1 0  9994
2 66351  53.1587 329.1025 0000899 102.6994 264.4857 15.70310140  5149
STARLINK-35850          
1 66352U 25254E   25335.83335647 -.01961744  00000+0 -17854-1 0  9996
2 66352  53.1591 329.0980 0000997  94.3463 274.7536 15.70316421  5125
STARLINK-35869          
1 66353U 25254F   25335.83335647 -.01937852  00000+0 -17625-1 0  9996
2 66353  53.1591 329.0939 0001001  87.5281 283.5032 15.70293992  5170
STARLINK-35895          
1 66354U 25254G   25335.83335647 -.02428069  00000+0 -37283-1 0  9995
2 66354  53.1595 329.2677 0001340  99.0604 186.0049 15.57394144  5170
STARLINK-35861          
1 66355U 25254H   25335.83335647 -.01973102  00000+0 -17966-1 0  9994
2 66355  53.1588 329.0858 0000920  94.7209 280.1283 15.70323973  5171
STARLINK-35851          
1 66356U 25254J   25335.83335647 -.01964840  00000+0 -17885-1 0  9994
2 66356  53.1588 329.0811 0000896  96.6231 280.1441 15.70318642  5172
STARLINK-35817          
1 66357U 25254K   25335.83335647 -.01968602  00000+0 -17920-1 0  9995
2 66357  53.1590 329.0770 0000963  99.0495 279.6318 15.70322216  5172
STARLINK-35807          
1 66358U 25254L   25335.83335647 -.01946419  00000+0 -17708-1 0  9992
2 66358  53.1590 329.0728 0000805 108.2587 272.3514 15.70302413  5171
STARLINK-35805          
1 66359U 25254M   25335.83335647 -.01965003  00000+0 -17885-1 0  9999
2 66359  53.1587 329.0693 0000991  96.3868 286.1279 15.70319973  5141
STARLINK-35823          
1 66360U 25254N   25335.83335647 -.02030497  00000+0 -18530-1 0  9990
2 66360  53.1585 329.0606 0001079  90.2050 296.1370 15.70360735  5177
